STARLINK-2234           
1 48580U 21041AD  26068.38205786  .00002295  00000+0  89533-4 0  9993
2 48580  53.1607 102.4354 0001211  92.2307 267.8832 15.30219172265590
HAWK-11A                
1 62382U 24247F   26068.51231358  .00009457  00000+0  34106-3 0  9991
2 62382  44.9941 114.3328 0005466 327.3713  32.6832 15.28849427 67741
