[{"OBJECT_NAME":"STARLINK-2234","OBJECT_ID":"2021-041AD","EPOCH":"2026-03-09T09:10:09.799104","MEAN_MOTION":15.30219172,"ECCENTRICITY":0.00012112,"INCLINATION":53.1607,"RA_OF_ASC_NODE":102.4354,"ARG_OF_PERICENTER":92.2307,"MEAN_ANOMALY":267.8832,"EPHEMERIS_TYPE":0,"CLASSIFICATION_TYPE":"U","NORAD_CAT_ID":48580,"ELEMENT_SET_NO":999,"REV_AT_EPOCH":26559,"BSTAR":8.9533127e-5,"MEAN_MOTION_DOT":2.295e-5,"MEAN_MOTION_DDOT":0},{"OBJECT_NAME":"HAWK-11A","OBJECT_ID":"2024-247F","EPOCH":"2026-03-09T12:17:43.893312","MEAN_MOTION":15.28849427,"ECCENTRICITY":0.00054663,"INCLINATION":44.9941,"RA_OF_ASC_NODE":114.3328,"ARG_OF_PERICENTER":327.3713,"MEAN_ANOMALY":32.6832,"EPHEMERIS_TYPE":0,"CLASSIFICATION_TYPE":"U","NORAD_CAT_ID":62382,"ELEMENT_SET_NO":999,"REV_AT_EPOCH":6774,"BSTAR":0.00034106017,"MEAN_MOTION_DOT":9.457e-5,"MEAN_MOTION_DDOT":0}]
